[{"OBJECT_NAME":"YAM-7","OBJECT_ID":"2024-149AN","EPOCH":"2026-03-09T17:13:55.117920","MEAN_MOTION":15.30304554,"ECCENTRICITY":0.00019733,"INCLINATION":97.3828,"RA_OF_ASC_NODE":149.4631,"ARG_OF_PERICENTER":296.5121,"MEAN_ANOMALY":63.5918,"EPHEMERIS_TYPE":0,"CLASSIFICATION_TYPE":"U","NORAD_CAT_ID":60504,"ELEMENT_SET_NO":999,"REV_AT_EPOCH":8683,"BSTAR":0.00030984439,"MEAN_MOTION_DOT":9.009e-5,"MEAN_MOTION_DDOT":0},{"OBJECT_NAME":"STARLINK-35963","OBJECT_ID":"2025-268AE","EPOCH":"2026-03-09T03:41:06.953280","MEAN_MOTION":15.27578695,"ECCENTRICITY":0.00014151,"INCLINATION":43.0027,"RA_OF_ASC_NODE":350.4473,"ARG_OF_PERICENTER":252.4104,"MEAN_ANOMALY":107.6593,"EPHEMERIS_TYPE":0,"CLASSIFICATION_TYPE":"U","NORAD_CAT_ID":66585,"ELEMENT_SET_NO":999,"REV_AT_EPOCH":1787,"BSTAR":0.0013187789,"MEAN_MOTION_DOT":0.00036205,"MEAN_MOTION_DDOT":0}]
