YAM-7                   
1 60504U 24149AN  26068.71799904  .00009009  00000+0  30984-3 0  9997
2 60504  97.3828 149.4631 0001973 296.5121  63.5918 15.30304554 86835
STARLINK-35963          
1 66585U 25268AE  26068.15355270  .00036205  00000+0  13188-2 0  9991
2 66585  43.0027 350.4473 0001415 252.4104 107.6593 15.27578695 17872
